NORAD_CAT_ID,OBJECT_NAME,OBJECT_TYPE,EPOCH,MEAN_MOTION,ECCENTRICITY,INCLINATION,RA_OF_ASC_NODE,ARG_OF_PERICENTER,MEAN_ANOMALY,BSTAR,MEAN_MOTION_DOT,MEAN_MOTION_DDOT,TLE_LINE0,TLE_LINE1,TLE_LINE2,SEMIMAJOR_AXIS,PERIOD,APOGEE,PERIGEE,DECAYED
52490.0,STARLINK-3914,PAYLOAD,2023-07-25 00:04:02,15.08850431,0.0001094,53.2177,32.8315,94.06,266.0517,0.00019428,2.806e-05,0.0,0 STARLINK-3914,1 52490U 22049AR  23206.00280423  .00002806  00000-0  19428-3 0  9992,2 52490  53.2177  32.8315 0001094  94.0600 266.0517 15.08850431 67669,6917.849,95.437,540.47,538.957,0.0
52490.0,STARLINK-3914,PAYLOAD,2023-07-26 12:37:55,15.08842688,0.0001095,53.2173,25.9924,89.5045,270.6073,8.2598e-05,1.027e-05,0.0,0 STARLINK-3914,1 52490U 22049AR  23207.52633169  .00001027  00000-0  82598-4 0  9992,2 52490  53.2173  25.9924 0001095  89.5045 270.6073 15.08842688 67895,6917.872,95.437,540.495,538.98,0.0
52490.0,STARLINK-3914,PAYLOAD,2023-07-26 20:34:50,15.08849877,0.0001292,53.2175,24.5064,67.3262,292.7866,0.00025411,3.76e-05,0.0,0 STARLINK-3914,1 52490U 22049AR  23207.85752959  .00003760  00000-0  25411-3 0  9993,2 52490  53.2175  24.5064 0001292  67.3262 292.7866 15.08849877 67949,6917.85,95.437,540.609,538.821,0.0
52490.0,STARLINK-3914,PAYLOAD,2023-07-27 04:31:46,15.08839572,0.0001084,53.2172,23.019,91.1571,268.9546,7.0791e-05,8.39e-06,0.0,0 STARLINK-3914,1 52490U 22049AR  23208.18873211  .00000839  00000-0  70791-4 0  9991,2 52490  53.2172  23.0190 0001084  91.1571 268.9546 15.08839572 68152,6917.882,95.438,540.497,538.997,0.0
52490.0,STARLINK-3914,PAYLOAD,2023-07-27 22:01:01,15.08833561,0.0001161,53.2181,19.7479,89.8809,270.2316,-2.7493e-05,-7.25e-06,0.0,0 STARLINK-3914,1 52490U 22049AR  23208.91737676 -.00000725  00000-0 -27493-4 0  9993,2 52490  53.2181  19.7479 0001161  89.8809 270.2316 15.08833561 68263,6917.9,95.438,540.568,538.962,0.0
52490.0,STARLINK-3914,PAYLOAD,2023-07-28 04:22:34,15.08833923,0.0001187,53.2187,18.5578,75.2231,284.8892,-1.0666e-05,-4.58e-06,0.0,0 STARLINK-3914,1 52490U 22049AR  23209.18233911 -.00000458  00000-0 -10666-4 0  9993,2 52490  53.2187  18.5578 0001187  75.2231 284.8892 15.08833923 68141,6917.899,95.438,540.585,538.943,0.0
52490.0,STARLINK-3914,PAYLOAD,2023-07-28 21:51:48,15.08846235,0.0001212,53.2188,15.2865,99.23,260.8829,0.00012578,1.715e-05,0.0,0 STARLINK-3914,1 52490U 22049AR  23209.91097360  .00001715  00000-0  12578-3 0  9998,2 52490  53.2188  15.2865 0001212  99.2300 260.8829 15.08846235 68411,6917.861,95.437,540.565,538.888,0.0
52490.0,STARLINK-3914,PAYLOAD,2023-07-29 10:34:53,15.08835255,0.0001009,53.2193,12.9079,90.143,269.9678,0.00024331,3.586e-05,0.0,0 STARLINK-3914,1 52490U 22049AR  23210.44090062  .00003586  00000-0  24331-3 0  9998,2 52490  53.2193  12.9079 0001009  90.1430 269.9678 15.08835255 68496,6917.895,95.438,540.458,539.062,0.0
52490.0,STARLINK-3914,PAYLOAD,2023-07-29 18:31:48,15.08851756,9.12e-05,53.2178,11.422,87.4748,272.6349,0.00018435,2.648e-05,0.0,0 STARLINK-3914,1 52490U 22049AR  23210.77209187  .00002648  00000-0  18435-3 0  9990,2 52490  53.2178  11.4220 0000912  87.4748 272.6349 15.08851756 68540,6917.844,95.437,540.34,539.079,0.0
52490.0,STARLINK-3914,PAYLOAD,2023-07-30 10:25:40,15.08842638,9.68e-05,53.2174,8.4485,83.5799,276.5304,0.00013886,1.923e-05,0.0,0 STARLINK-3914,1 52490U 22049AR  23211.43449661  .00001923  00000-0  13886-3 0  9997,2 52490  53.2174   8.4485 0000968  83.5799 276.5304 15.08842638 68643,6917.872,95.437,540.407,539.068,0.0
52490.0,STARLINK-3914,PAYLOAD,2023-07-31 16:38:00,15.08841979,0.0001009,53.2175,2.7999,78.0631,282.0474,0.00013813,1.911e-05,0.0,0 STARLINK-3914,1 52490U 22049AR  23212.69305776  .00001911  00000-0  13813-3 0  9991,2 52490  53.2175   2.7999 0001009  78.0631 282.0474 15.08841979 68830,6917.874,95.437,540.437,539.041,0.0
52490.0,STARLINK-3914,PAYLOAD,2023-08-02 09:58:01,15.08842116,9.77e-05,53.2178,355.067,82.5406,277.5697,0.0001258,1.715e-05,0.0,0 STARLINK-3914,1 52490U 22049AR  23214.41529845  .00001715  00000-0  12580-3 0  9990,2 52490  53.2178 355.0670 0000977  82.5406 277.5697 15.08842116 69095,6917.874,95.437,540.415,539.063,0.0
52490.0,STARLINK-3914,PAYLOAD,2023-08-02 16:19:33,15.08854879,9.64e-05,53.2178,353.8778,81.6354,278.4748,0.00031179,4.68e-05,0.0,0 STARLINK-3914,1 52490U 22049AR  23214.68025226  .00004680  00000-0  31179-3 0  9992,2 52490  53.2178 353.8778 0000964  81.6354 278.4748 15.08854879 69139,6917.835,95.437,540.367,539.033,0.0
52490.0,STARLINK-3914,PAYLOAD,2023-08-03 09:48:48,15.08845897,0.0001766,53.2184,350.6042,85.8577,274.2617,4.6506e-05,4.52e-06,0.0,0 STARLINK-3914,1 52490U 22049AR  23215.40889384  .00000452  00000-0  46506-4 0  9990,2 52490  53.2184 350.6042 0001766  85.8577 274.2617 15.08845897 69240,6917.862,95.437,540.949,538.506,0.0
52490.0,STARLINK-3914,PAYLOAD,2023-08-03 19:21:06,15.08857133,8.94e-05,53.218,348.8226,89.4445,270.6649,0.00034203,5.162e-05,0.0,0 STARLINK-3914,1 52490U 22049AR  23215.80632851  .00005162  00000-0  34203-3 0  9992,2 52490  53.2180 348.8226 0000894  89.4445 270.6649 15.08857133 69302,6917.828,95.436,540.311,539.075,0.0
52490.0,STARLINK-3914,PAYLOAD,2023-08-04 09:39:36,15.08829968,0.0001667,53.218,346.1407,77.9052,282.2127,-9.5674e-05,-1.81e-05,0.0,0 STARLINK-3914,1 52490U 22049AR  23216.40250029 -.00001810  00000-0 -95674-4 0  9990,2 52490  53.2180 346.1407 0001667  77.9052 282.2127 15.08829968 69393,6917.911,95.438,540.929,538.623,0.0
52490.0,STARLINK-3914,PAYLOAD,2023-08-04 20:47:17,15.0884815,0.000108,53.218,344.0643,92.6559,267.4557,0.00098188,0.00015377,0.0,0 STARLINK-3914,1 52490U 22049AR  23216.86617896  .00015377  00000-0  98188-3 0  9992,2 52490  53.2180 344.0643 0001080  92.6559 267.4557 15.08848150 69461,6917.855,95.437,540.468,538.973,0.0
52490.0,STARLINK-3914,PAYLOAD,2023-08-06 01:24:14,15.08848807,0.0001502,53.2172,338.7136,66.7428,293.3723,0.000855,0.00013349,0.0,0 STARLINK-3914,1 52490U 22049AR  23218.05849965  .00013349  00000-0  85500-3 0  9990,2 52490  53.2172 338.7136 0001502  66.7428 293.3723 15.08848807 69647,6917.853,95.437,540.758,538.679,0.0
52490.0,STARLINK-3914,PAYLOAD,2023-08-06 17:18:06,15.08823256,0.0001108,53.2174,335.7403,61.0689,299.0414,0.00026251,3.891e-05,0.0,0 STARLINK-3914,1 52490U 22049AR  23218.72091025  .00003891  00000-0  26251-3 0  9999,2 52490  53.2174 335.7403 0001108  61.0689 299.0414 15.08823256 69744,6917.932,95.439,540.563,539.03,0.0
52490.0,STARLINK-3914,PAYLOAD,2023-08-07 18:44:17,15.08867301,0.0001285,53.2172,330.9831,48.6087,311.5016,0.0017567,0.00027801,0.0,0 STARLINK-3914,1 52490U 22049AR  23219.78075256  .00027801  00000-0  17567-2 0  9990,2 52490  53.2172 330.9831 0001285  48.6087 311.5016 15.08867301 69908,6917.797,95.436,540.551,538.773,0.0
52490.0,STARLINK-3914,PAYLOAD,2023-08-08 07:27:22,15.08864013,0.0001438,53.2175,328.6041,48.6554,311.4562,0.00158,0.00024964,0.0,0 STARLINK-3914,1 52490U 22049AR  23220.31067174  .00024964  00000-0  15800-2 0  9996,2 52490  53.2175 328.6041 0001438  48.6554 311.4562 15.08864013 69987,6917.807,95.436,540.667,538.677,0.0
52490.0,STARLINK-3914,PAYLOAD,2023-08-08 16:59:40,15.08871283,0.0001173,53.2177,326.8198,51.9541,308.1557,0.0017064,0.00026997,0.0,0 STARLINK-3914,1 52490U 22049AR  23220.70810575  .00026997  00000-0  17064-2 0  9992,2 52490  53.2177 326.8198 0001173  51.9541 308.1557 15.08871283 70044,6917.785,95.436,540.461,538.838,0.0
52490.0,STARLINK-3914,PAYLOAD,2023-08-09 07:18:08,15.08847808,0.0001168,53.2175,324.1435,47.4434,312.6656,0.001062,0.00016658,0.0,0 STARLINK-3914,1 52490U 22049AR  23221.30426949  .00016658  00000-0  10620-2 0  9991,2 52490  53.2175 324.1435 0001168  47.4434 312.6656 15.08847808 70138,6917.857,95.437,540.53,538.914,0.0
52490.0,STARLINK-3914,PAYLOAD,2023-08-09 13:39:41,15.08842869,0.0001069,53.2179,322.9521,64.1199,295.9904,0.00050413,7.745e-05,0.0,0 STARLINK-3914,1 52490U 22049AR  23221.56922927  .00007745  00000-0  50413-3 0  9998,2 52490  53.2179 322.9521 0001069  64.1199 295.9904 15.08842869 70173,6917.872,95.437,540.476,538.997,0.0
52490.0,STARLINK-3914,PAYLOAD,2023-08-10 10:19:42,15.08844678,9.76e-05,53.2181,319.0857,79.5411,280.5691,0.00034357,5.185e-05,0.0,0 STARLINK-3914,1 52490U 22049AR  23222.43034828  .00005185  00000-0  34357-3 0  9994,2 52490  53.2181 319.0857 0000976  79.5411 280.5691 15.08844678 70306,6917.866,95.437,540.406,539.056,0.0
52490.0,STARLINK-3914,PAYLOAD,2023-08-10 23:02:47,15.08836522,9.61e-05,53.2181,316.7075,84.1197,275.9905,-0.00025117,-4.282e-05,0.0,0 STARLINK-3914,1 52490U 22049AR  23222.96026719 -.00004282  00000-0 -25117-3 0  9995,2 52490  53.2181 316.7075 0000961  84.1197 275.9905 15.08836522 70382,6917.891,95.438,540.421,539.091,0.0
52490.0,STARLINK-3914,PAYLOAD,2023-08-11 16:32:01,15.08848992,8.99e-05,53.2179,313.4369,83.2074,276.9021,0.00033303,5.018e-05,0.0,0 STARLINK-3914,1 52490U 22049AR  23223.68890498  .00005018  00000-0  33303-3 0  9990,2 52490  53.2179 313.4369 0000899  83.2074 276.9021 15.08848992 70499,6917.853,95.437,540.34,539.096,0.0
52490.0,STARLINK-3914,PAYLOAD,2023-08-11 22:53:34,15.08835839,0.0001189,53.2183,312.2464,76.1309,283.9815,-3.7941e-06,-3.48e-06,0.0,0 STARLINK-3914,1 52490U 22049AR  23223.95386964 -.00000348  00000-0 -37941-5 0  9995,2 52490  53.2183 312.2464 0001189  76.1309 283.9815 15.08835839 70532,6917.893,95.438,540.581,538.936,0.0
52490.0,STARLINK-3914,PAYLOAD,2023-08-12 17:58:11,15.08848614,0.0001082,53.2175,308.6787,81.2856,278.8259,0.00034217,5.163e-05,0.0,0 STARLINK-3914,1 52490U 22049AR  23224.74874678  .00005163  00000-0  34217-3 0  9996,2 52490  53.2175 308.6787 0001082  81.2856 278.8259 15.08848614 70659,6917.854,95.437,540.468,538.971,0.0
52490.0,STARLINK-3914,PAYLOAD,2023-08-13 13:02:49,15.08843433,0.0001029,53.2171,305.1113,87.3964,272.7146,0.00035748,5.407e-05,0.0,0 STARLINK-3914,1 52490U 22049AR  23225.54363088  .00005407  00000-0  35748-3 0  9994,2 52490  53.2171 305.1113 0001029  87.3964 272.7146 15.08843433 70773,6917.87,95.437,540.447,539.023,0.0
